{
  "links" : {
    "next" : "https://api.nasa.gov/neo/rest/v1/feed?start_date=2004-10-09&end_date=2004-10-09&detailed=true&api_key=t0TVs3DtDT2H8Oy2Zy8m2eVrNsAVKAexjcZXUckd",
    "prev" : "https://api.nasa.gov/neo/rest/v1/feed?start_date=2004-10-07&end_date=2004-10-07&detailed=true&api_key=t0TVs3DtDT2H8Oy2Zy8m2eVrNsAVKAexjcZXUckd",
    "self" : "https://api.nasa.gov/neo/rest/v1/feed?start_date=2004-10-08&end_date=2004-10-08&detailed=true&api_key=t0TVs3DtDT2H8Oy2Zy8m2eVrNsAVKAexjcZXUckd"
  },
  "element_count" : 5,
  "near_earth_objects" : {
    "2004-10-08" : [ {
      "links" : {
        "self" : "https://api.nasa.gov/neo/rest/v1/neo/3611400?api_key=t0TVs3DtDT2H8Oy2Zy8m2eVrNsAVKAexjcZXUckd"
      },
      "neo_reference_id" : "3611400",
      "name" : "(2012 UC)",
      "nasa_jpl_url" : "http://ssd.jpl.nasa.gov/sbdb.cgi?sstr=3611400",
      "absolute_magnitude_h" : 25.0,
      "estimated_diameter" : {
        "kilometers" : {
          "estimated_diameter_min" : 0.02658,
          "estimated_diameter_max" : 0.0594346868
        },
        "meters" : {
          "estimated_diameter_min" : 26.58,
          "estimated_diameter_max" : 59.4346868419
        },
        "miles" : {
          "estimated_diameter_min" : 0.0165160412,
          "estimated_diameter_max" : 0.0369309908
        },
        "feet" : {
          "estimated_diameter_min" : 87.2047272,
          "estimated_diameter_max" : 194.9956979785
        }
      },
      "is_potentially_hazardous_asteroid" : false,
      "close_approach_data" : [ {
        "close_approach_date" : "2004-10-08",
        "epoch_date_close_approach" : 1097218800000,
        "relative_velocity" : {
          "kilometers_per_second" : "20.8003287985",
          "kilometers_per_hour" : "74881.1836747447",
          "miles_per_hour" : "46528.2554894546"
        },
        "miss_distance" : {
          "astronomical" : "0.3667318696",
          "lunar" : "142.658706665",
          "kilometers" : "54862308",
          "miles" : "34089860"
        },
        "orbiting_body" : "Earth"
      } ],
      "orbital_data" : {
        "orbit_id" : "5",
        "orbit_determination_date" : "2017-04-06 08:48:30",
        "orbit_uncertainty" : "6",
        "minimum_orbit_intersection" : ".0187898",
        "jupiter_tisserand_invariant" : "6.384",
        "epoch_osculation" : "2458000.5",
        "eccentricity" : ".326860711970322",
        "semi_major_axis" : ".9302337444493961",
        "inclination" : "8.333753551706272",
        "ascending_node_longitude" : "20.49127086505545",
        "orbital_period" : "327.7076361182716",
        "perihelion_distance" : ".626176880439848",
        "perihelion_argument" : "128.46312989278",
        "aphelion_distance" : "1.234290608458944",
        "perihelion_time" : "2457939.712985574642",
        "mean_anomaly" : "66.77697673554127",
        "mean_motion" : "1.098540163006986",
        "equinox" : "J2000"
      }
    }, {
      "links" : {
        "self" : "https://api.nasa.gov/neo/rest/v1/neo/3739705?api_key=t0TVs3DtDT2H8Oy2Zy8m2eVrNsAVKAexjcZXUckd"
      },
      "neo_reference_id" : "3739705",
      "name" : "(2016 AH164)",
      "nasa_jpl_url" : "http://ssd.jpl.nasa.gov/sbdb.cgi?sstr=3739705",
      "absolute_magnitude_h" : 29.7,
      "estimated_diameter" : {
        "kilometers" : {
          "estimated_diameter_min" : 0.0030517923,
          "estimated_diameter_max" : 0.0068240151
        },
        "meters" : {
          "estimated_diameter_min" : 3.0517923259,
          "estimated_diameter_max" : 6.824015094
        },
        "miles" : {
          "estimated_diameter_min" : 0.0018962952,
          "estimated_diameter_max" : 0.0042402451
        },
        "feet" : {
          "estimated_diameter_min" : 10.0124423346,
          "estimated_diameter_max" : 22.388501681
        }
      },
      "is_potentially_hazardous_asteroid" : false,
      "close_approach_data" : [ {
        "close_approach_date" : "2004-10-08",
        "epoch_date_close_approach" : 1097218800000,
        "relative_velocity" : {
          "kilometers_per_second" : "15.0417722152",
          "kilometers_per_hour" : "54150.3799748838",
          "miles_per_hour" : "33646.9402682827"
        },
        "miss_distance" : {
          "astronomical" : "0.2690033507",
          "lunar" : "104.6423110962",
          "kilometers" : "40242332",
          "miles" : "25005424"
        },
        "orbiting_body" : "Earth"
      } ],
      "orbital_data" : {
        "orbit_id" : "6",
        "orbit_determination_date" : "2017-04-06 08:29:14",
        "orbit_uncertainty" : "6",
        "minimum_orbit_intersection" : ".000179728",
        "jupiter_tisserand_invariant" : "5.436",
        "epoch_osculation" : "2458000.5",
        "eccentricity" : ".2487680318553807",
        "semi_major_axis" : "1.149567785696142",
        "inclination" : "1.73763566346357",
        "ascending_node_longitude" : "291.0302138398737",
        "orbital_period" : "450.1946239127912",
        "perihelion_distance" : ".8635920701641645",
        "perihelion_argument" : "112.8902122871813",
        "aphelion_distance" : "1.435543501228119",
        "perihelion_time" : "2457796.143644188251",
        "mean_anomaly" : "163.4144083126167",
        "mean_motion" : ".7996541515114514",
        "equinox" : "J2000"
      }
    } ]
  }
}